#aV2014  2 13  0  0  0.00000000     288 DD+AD WGS84 FIT  NGA
## 1779 345600.00000000   300.00000000 56701 0.0000000000000
+   31     1  2  3  4  5  6  7  8  9 10 11 12 13 14 15 16 17
+         18 19 20 21 22 23 24 25 26 27 28 29 31 32  0  0  0
+          0  0  0  0  0  0  0  0  0  0  0  0  0  0  0  0  0
+          0  0  0  0  0  0  0  0  0  0  0  0  0  0  0  0  0
+          0  0  0  0  0  0  0  0  0  0  0  0  0  0  0  0  0
++         2  2  2  2  2  2  2  2  2  2  2  2  2  2  2  2  2
++         2  2  2  2  2  2  2  2  2  2  2  2  2  2  0  0  0
++         0  0  0  0  0  0  0  0  0  0  0  0  0  0  0  0  0
++         0  0  0  0  0  0  0  0  0  0  0  0  0  0  0  0  0
++         0  0  0  0  0  0  0  0  0  0  0  0  0  0  0  0  0
%c cc cc ccc ccc cccc cccc cccc cccc ccccc ccccc ccccc ccccc
%c cc cc ccc ccc cccc cccc cccc cccc ccccc ccccc ccccc ccccc
%f  0.0000000  0.000000000  0.00000000000  0.000000000000000
%f  0.0000000  0.000000000  0.00000000000  0.000000000000000
%i    0    0    0    0      0      0      0      0         0
%i    0    0    0    0      0      0      0      0         0
/*      NGA, ST. LOUIS,MO.                                  
/*   EPHEMERIS COMPUTED FROM  1 DAYS OF DATA                
/*   EPOCHA SMOOTHER                                       
/* CCCCCCCCCCCCCCCCCCCCCCCCCCCCCCCCCCCCCCCCCCCCCCCCCCCCCCCCC
*  2014  2 13 22  0  0.00000000
P  1 -22845.935366 -13146.591746   3739.018035     -0.974511                    
V  1  -2325.736734  -4947.358738 -31213.253271      0.021630                    
P  2   9912.033688  19975.228906  15059.998006    478.479178                    
V  2 -16520.248773  -8633.972964  22218.399614      0.022030                    
P  3  -5998.696862 -15030.985081 -21589.464719    325.407027                    
V  3  22239.414672 -13983.453970   3815.657976      0.049495                    
P  4  -6705.090451  14176.268356  21112.947474      5.535259                    
V  4 -22926.098185 -15436.680682   3280.070401      0.002630                    
P  5   3801.330814  24848.103640  -8370.782363   -388.652117                    
V  5  -4055.535459  10314.333185  29075.264991      0.015708                    
P  6   3239.933834 -17712.995805 -19342.770462    274.487132                    
V  6  22638.460782 -10394.955193  13679.787515      0.144230                    
P  7 -21046.035726  -1954.367395 -16212.183098    313.576792                    
V  7 -15629.176335 -13425.812217  21501.703259      0.041648                    
P  8 -13694.206116   6520.742267 -21740.591434     11.898830                    
V  8 -20488.979779 -18735.491397   6655.449453      0.002062                    
P  9 -12485.662526   9196.330683 -22114.266522    305.287517                    
V  9 -21628.603025 -15711.110386   5663.413172      0.027934                    
P 10  -9166.254870  22810.580972   9154.378721   -114.189905                    
V 10  -2156.641309 -12561.717483  28545.436178     -0.015821                    
P 11 -22162.999113 -13178.464523  -7304.794446   -464.048804                    
V 11   9650.351274  -1583.239039 -28074.549548     -0.032195                    
P 12  11719.892753  12836.550128  20098.019122    186.267725                    
V 12  -4061.249817  25185.048665 -13469.515927      0.023369                    
P 13 -25574.118080   4465.258785   5830.182717     29.909278                    
V 13   6479.989473  -4373.437780  30903.799814     -0.038473                    
P 14  19720.485022 -14677.676395  10079.840365    198.526783                    
V 14  12531.666290  -2227.074513 -28498.650277     -0.031226                    
P 15  15144.069494   8881.816829 -20055.973532   -162.976773                    
V 15 -22180.986126  12352.806920 -11018.023512     -0.020647                    
P 16  -2411.930392 -24636.949941  -9158.538599   -231.637665                    
V 16   3781.387326 -11222.761237  29635.506451      0.015113                    
P 17 -18398.930226  15679.262371  10981.266950    -68.026133                    
V 17 -13522.315244   2967.958999 -27747.359029     -0.033043                    
P 18  15419.820798  -8251.883201 -19469.407218    301.767213                    
V 18   -558.245586  25940.556758 -11524.102357      0.021564                    
P 19 -13526.528262 -10385.213170 -20595.783284   -438.683207                    
V 19  24073.425663  -9153.572209 -10832.097914     -0.024246                    
P 20 -14502.009193  -9904.207179  19752.770844    161.470942                    
V 20   2245.227643 -25551.431379 -10982.030070      0.033590                    
P 21  20875.800993     84.987318 -16078.801509   -343.814154                    
V 21  16249.576831  14198.603814  19926.581873     -0.021188                    
P 22  11380.081638 -20199.065548 -12622.629837    213.219119                    
V 22   1881.245013  16728.322232 -24840.248146      0.024170                    
P 23 -21286.817512  -2941.913049  15961.229718      4.206163                    
V 23  17492.610239  -9773.881346  21255.759729     -0.032603                    
P 24  21355.307233  15831.926766  -1160.777207    -23.263923                    
V 24  -2814.394679   1496.872430 -31587.262128     -0.005879                    
P 25  14980.568257  -1579.455320  21808.044581     14.405176                    
V 25  -2166.113765  27713.916660   3606.269290      0.018505                    
P 26   2059.021641  15243.501229 -22285.112433    165.915864                    
V 26 -25366.282457   8388.893262   3805.688763     -0.109685                    
P 27    200.651345 -16222.248866 -21024.275364    -18.544683                    
V 27  24549.792834 -10511.351327   8381.549296     -0.011483                    
P 28 -12600.387361  17607.679284 -14677.571454    332.307315                    
V 28   1286.357387 -19766.626456 -23980.106800      0.029595                    
P 29  24802.036426  -3279.599857   8901.409014    510.767616                    
V 29  -9567.745500   6367.493567  29190.150239      0.029601                    
P 31   3005.059541 -15674.100566  21334.456395    333.208665                    
V 31  21769.290646  15514.604151   8698.944089      0.003032                    
P 32  -6783.545126 -21447.026853  14601.459445   -486.144000                    
V 32   5221.705718 -17595.144480 -22989.511044      0.063921                    
EOF
